[{"OBJECT_NAME":"ONEWEB-0018","OBJECT_ID":"2020-020L","EPOCH":"2025-10-04T20:27:45.639648","MEAN_MOTION":13.11418232,"ECCENTRICITY":0.0001601,"INCLINATION":87.8804,"RA_OF_ASC_NODE":71.9162,"ARG_OF_PERICENTER":93.9864,"MEAN_ANOMALY":266.1447,"EPHEMERIS_TYPE":0,"CLASSIFICATION_TYPE":"U","NORAD_CAT_ID":45434,"ELEMENT_SET_NO":999,"REV_AT_EPOCH":26916,"BSTAR":-0.0012292,"MEAN_MOTION_DOT":-4.23e-6,"MEAN_MOTION_DDOT":0},{"OBJECT_NAME":"ONEWEB-0083","OBJECT_ID":"2020-020M","EPOCH":"2025-10-04T20:14:19.279680","MEAN_MOTION":13.11416988,"ECCENTRICITY":0.0001639,"INCLINATION":87.8805,"RA_OF_ASC_NODE":71.9076,"ARG_OF_PERICENTER":96.4236,"MEAN_ANOMALY":263.7079,"EPHEMERIS_TYPE":0,"CLASSIFICATION_TYPE":"U","NORAD_CAT_ID":45435,"ELEMENT_SET_NO":999,"REV_AT_EPOCH":26920,"BSTAR":-0.0022881,"MEAN_MOTION_DOT":-7.98e-6,"MEAN_MOTION_DDOT":0},{"OBJECT_NAME":"ONEWEB-0095","OBJECT_ID":"2020-020N","EPOCH":"2025-10-04T20:01:06.773952","MEAN_MOTION":13.11414337,"ECCENTRICITY":0.000239,"INCLINATION":87.8796,"RA_OF_ASC_NODE":71.9266,"ARG_OF_PERICENTER":85.9861,"MEAN_ANOMALY":274.154,"EPHEMERIS_TYPE":0,"CLASSIFICATION_TYPE":"U","NORAD_CAT_ID":45436,"ELEMENT_SET_NO":999,"REV_AT_EPOCH":26920,"BSTAR":-0.001271,"MEAN_MOTION_DOT":-4.38e-6,"MEAN_MOTION_DDOT":0},{"OBJECT_NAME":"ONEWEB-0092","OBJECT_ID":"2020-020P","EPOCH":"2025-10-05T04:29:57.757920","MEAN_MOTION":13.11418235,"ECCENTRICITY":0.0001888,"INCLINATION":87.8805,"RA_OF_ASC_NODE":71.8495,"ARG_OF_PERICENTER":87.9483,"MEAN_ANOMALY":272.1861,"EPHEMERIS_TYPE":0,"CLASSIFICATION_TYPE":"U","NORAD_CAT_ID":45437,"ELEMENT_SET_NO":999,"REV_AT_EPOCH":26936,"BSTAR":0.0015356,"MEAN_MOTION_DOT":5.57e-6,"MEAN_MOTION_DDOT":0},{"OBJECT_NAME":"ONEWEB-0085","OBJECT_ID":"2020-020Q","EPOCH":"2025-10-04T16:33:22.060224","MEAN_MOTION":13.11417069,"ECCENTRICITY":0.0001693,"INCLINATION":87.8795,"RA_OF_ASC_NODE":71.9613,"ARG_OF_PERICENTER":92.6918,"MEAN_ANOMALY":267.4403,"EPHEMERIS_TYPE":0,"CLASSIFICATION_TYPE":"U","NORAD_CAT_ID":45438,"ELEMENT_SET_NO":999,"REV_AT_EPOCH":26918,"BSTAR":-0.0015527,"MEAN_MOTION_DOT":-5.38e-6,"MEAN_MOTION_DDOT":0},{"OBJECT_NAME":"ONEWEB-0096","OBJECT_ID":"2020-020R","EPOCH":"2025-10-04T16:35:48.962688","MEAN_MOTION":13.11417153,"ECCENTRICITY":0.0001487,"INCLINATION":87.8812,"RA_OF_ASC_NODE":71.9335,"ARG_OF_PERICENTER":92.8665,"MEAN_ANOMALY":267.2633,"EPHEMERIS_TYPE":0,"CLASSIFICATION_TYPE":"U","NORAD_CAT_ID":45439,"ELEMENT_SET_NO":999,"REV_AT_EPOCH":26917,"BSTAR":-0.0016187,"MEAN_MOTION_DOT":-5.61e-6,"MEAN_MOTION_DDOT":0},{"OBJECT_NAME":"ONEWEB-0037","OBJECT_ID":"2020-020S","EPOCH":"2025-10-04T16:07:44.065920","MEAN_MOTION":13.11416057,"ECCENTRICITY":0.0001749,"INCLINATION":87.8813,"RA_OF_ASC_NODE":71.9032,"ARG_OF_PERICENTER":91.7309,"MEAN_ANOMALY":268.4019,"EPHEMERIS_TYPE":0,"CLASSIFICATION_TYPE":"U","NORAD_CAT_ID":45440,"ELEMENT_SET_NO":999,"REV_AT_EPOCH":26920,"BSTAR":8.1457e-5,"MEAN_MOTION_DOT":4.2e-7,"MEAN_MOTION_DDOT":0},{"OBJECT_NAME":"ONEWEB-0042","OBJECT_ID":"2020-020T","EPOCH":"2025-10-04T20:00:41.996160","MEAN_MOTION":13.11413694,"ECCENTRICITY":0.0001664,"INCLINATION":87.8803,"RA_OF_ASC_NODE":71.9087,"ARG_OF_PERICENTER":89.8971,"MEAN_ANOMALY":270.2347,"EPHEMERIS_TYPE":0,"CLASSIFICATION_TYPE":"U","NORAD_CAT_ID":45441,"ELEMENT_SET_NO":999,"REV_AT_EPOCH":26919,"BSTAR":-0.0012526,"MEAN_MOTION_DOT":-4.31e-6,"MEAN_MOTION_DDOT":0},{"OBJECT_NAME":"ONEWEB-0098","OBJECT_ID":"2020-020U","EPOCH":"2025-10-04T19:54:47.953152","MEAN_MOTION":13.11413165,"ECCENTRICITY":0.0001719,"INCLINATION":87.8801,"RA_OF_ASC_NODE":71.9201,"ARG_OF_PERICENTER":97.4963,"MEAN_ANOMALY":262.636,"EPHEMERIS_TYPE":0,"CLASSIFICATION_TYPE":"U","NORAD_CAT_ID":45442,"ELEMENT_SET_NO":999,"REV_AT_EPOCH":26917,"BSTAR":-0.00085651,"MEAN_MOTION_DOT":-2.91e-6,"MEAN_MOTION_DDOT":0},{"OBJECT_NAME":"ONEWEB-0055","OBJECT_ID":"2020-020V","EPOCH":"2025-10-04T15:50:39.551136","MEAN_MOTION":13.11414527,"ECCENTRICITY":0.000169,"INCLINATION":87.8806,"RA_OF_ASC_NODE":71.9554,"ARG_OF_PERICENTER":96.0949,"MEAN_ANOMALY":264.0372,"EPHEMERIS_TYPE":0,"CLASSIFICATION_TYPE":"U","NORAD_CAT_ID":45443,"ELEMENT_SET_NO":999,"REV_AT_EPOCH":26912,"BSTAR":0.001387,"MEAN_MOTION_DOT":5.04e-6,"MEAN_MOTION_DDOT":0},{"OBJECT_NAME":"ONEWEB-0093","OBJECT_ID":"2020-020W","EPOCH":"2025-10-04T20:45:03.433248","MEAN_MOTION":13.11417382,"ECCENTRICITY":0.0001469,"INCLINATION":87.8807,"RA_OF_ASC_NODE":71.9002,"ARG_OF_PERICENTER":79.917,"MEAN_ANOMALY":280.2123,"EPHEMERIS_TYPE":0,"CLASSIFICATION_TYPE":"U","NORAD_CAT_ID":45444,"ELEMENT_SET_NO":999,"REV_AT_EPOCH":26921,"BSTAR":0.00021014,"MEAN_MOTION_DOT":8.7e-7,"MEAN_MOTION_DDOT":0},{"OBJECT_NAME":"ONEWEB-0029","OBJECT_ID":"2020-020X","EPOCH":"2025-10-03T15:50:10.716864","MEAN_MOTION":13.1141537,"ECCENTRICITY":0.00015815,"INCLINATION":87.8804,"RA_OF_ASC_NODE":72.1533,"ARG_OF_PERICENTER":92.2063,"MEAN_ANOMALY":267.9246,"EPHEMERIS_TYPE":0,"CLASSIFICATION_TYPE":"U","NORAD_CAT_ID":45445,"ELEMENT_SET_NO":999,"REV_AT_EPOCH":26903,"BSTAR":0.0014763883,"MEAN_MOTION_DOT":5.36e-6,"MEAN_MOTION_DDOT":0},{"OBJECT_NAME":"ONEWEB-0068","OBJECT_ID":"2020-020Y","EPOCH":"2025-10-04T20:44:39.731136","MEAN_MOTION":13.11417931,"ECCENTRICITY":0.0001482,"INCLINATION":87.8807,"RA_OF_ASC_NODE":71.9015,"ARG_OF_PERICENTER":91.7336,"MEAN_ANOMALY":268.3962,"EPHEMERIS_TYPE":0,"CLASSIFICATION_TYPE":"U","NORAD_CAT_ID":45446,"ELEMENT_SET_NO":999,"REV_AT_EPOCH":26913,"BSTAR":9.7935e-5,"MEAN_MOTION_DOT":4.7e-7,"MEAN_MOTION_DDOT":0},{"OBJECT_NAME":"ONEWEB-0046","OBJECT_ID":"2020-020Z","EPOCH":"2025-10-04T20:32:38.687712","MEAN_MOTION":13.11418112,"ECCENTRICITY":0.0001663,"INCLINATION":87.8804,"RA_OF_ASC_NODE":71.9122,"ARG_OF_PERICENTER":84.2387,"MEAN_ANOMALY":275.8931,"EPHEMERIS_TYPE":0,"CLASSIFICATION_TYPE":"U","NORAD_CAT_ID":45447,"ELEMENT_SET_NO":999,"REV_AT_EPOCH":26914,"BSTAR":-0.00095627,"MEAN_MOTION_DOT":-3.26e-6,"MEAN_MOTION_DDOT":0},{"OBJECT_NAME":"ONEWEB-0063","OBJECT_ID":"2020-020AA","EPOCH":"2025-10-03T15:56:16.803168","MEAN_MOTION":13.11413991,"ECCENTRICITY":0.00019012,"INCLINATION":87.8799,"RA_OF_ASC_NODE":72.1485,"ARG_OF_PERICENTER":89.2418,"MEAN_ANOMALY":270.8928,"EPHEMERIS_TYPE":0,"CLASSIFICATION_TYPE":"U","NORAD_CAT_ID":45448,"ELEMENT_SET_NO":999,"REV_AT_EPOCH":26907,"BSTAR":0.0014944343,"MEAN_MOTION_DOT":5.42e-6,"MEAN_MOTION_DDOT":0},{"OBJECT_NAME":"ONEWEB-0019","OBJECT_ID":"2020-020AB","EPOCH":"2025-10-04T11:26:57.825888","MEAN_MOTION":13.11422201,"ECCENTRICITY":0.000166,"INCLINATION":87.8805,"RA_OF_ASC_NODE":72.0023,"ARG_OF_PERICENTER":91.3029,"MEAN_ANOMALY":268.8289,"EPHEMERIS_TYPE":0,"CLASSIFICATION_TYPE":"U","NORAD_CAT_ID":45449,"ELEMENT_SET_NO":999,"REV_AT_EPOCH":26902,"BSTAR":-0.0015352,"MEAN_MOTION_DOT":-5.31e-6,"MEAN_MOTION_DDOT":0},{"OBJECT_NAME":"ONEWEB-0094","OBJECT_ID":"2020-020AC","EPOCH":"2025-10-04T16:15:56.189088","MEAN_MOTION":13.17652141,"ECCENTRICITY":0.0001589,"INCLINATION":87.9086,"RA_OF_ASC_NODE":56.6453,"ARG_OF_PERICENTER":96.4547,"MEAN_ANOMALY":263.6766,"EPHEMERIS_TYPE":0,"CLASSIFICATION_TYPE":"U","NORAD_CAT_ID":45450,"ELEMENT_SET_NO":999,"REV_AT_EPOCH":27266,"BSTAR":-5.7064e-5,"MEAN_MOTION_DOT":-9.0e-8,"MEAN_MOTION_DDOT":0},{"OBJECT_NAME":"ONEWEB-0087","OBJECT_ID":"2020-020AD","EPOCH":"2025-10-04T19:38:44.484288","MEAN_MOTION":13.114136,"ECCENTRICITY":0.0001348,"INCLINATION":87.8817,"RA_OF_ASC_NODE":71.8695,"ARG_OF_PERICENTER":91.481,"MEAN_ANOMALY":268.6472,"EPHEMERIS_TYPE":0,"CLASSIFICATION_TYPE":"U","NORAD_CAT_ID":45451,"ELEMENT_SET_NO":999,"REV_AT_EPOCH":26911,"BSTAR":0.00068836,"MEAN_MOTION_DOT":2.57e-6,"MEAN_MOTION_DDOT":0},{"OBJECT_NAME":"ONEWEB-0082","OBJECT_ID":"2020-020AE","EPOCH":"2025-10-04T10:24:43.648128","MEAN_MOTION":13.11415467,"ECCENTRICITY":0.0001518,"INCLINATION":87.8816,"RA_OF_ASC_NODE":71.9717,"ARG_OF_PERICENTER":96.7849,"MEAN_ANOMALY":263.3452,"EPHEMERIS_TYPE":0,"CLASSIFICATION_TYPE":"U","NORAD_CAT_ID":45452,"ELEMENT_SET_NO":999,"REV_AT_EPOCH":26915,"BSTAR":0.0010701,"MEAN_MOTION_DOT":3.92e-6,"MEAN_MOTION_DDOT":0},{"OBJECT_NAME":"ONEWEB-0050","OBJECT_ID":"2020-020AF","EPOCH":"2025-10-05T06:00:00.998784","MEAN_MOTION":14.89037541,"ECCENTRICITY":0.0004202,"INCLINATION":88.5375,"RA_OF_ASC_NODE":268.5749,"ARG_OF_PERICENTER":128.7906,"MEAN_ANOMALY":295.5121,"EPHEMERIS_TYPE":0,"CLASSIFICATION_TYPE":"U","NORAD_CAT_ID":45453,"ELEMENT_SET_NO":999,"REV_AT_EPOCH":571,"BSTAR":0.001634,"MEAN_MOTION_DOT":0.00015419,"MEAN_MOTION_DDOT":0},{"OBJECT_NAME":"ONEWEB-0034","OBJECT_ID":"2020-020AG","EPOCH":"2025-10-04T20:04:34.061376","MEAN_MOTION":13.11414653,"ECCENTRICITY":0.0001636,"INCLINATION":87.8802,"RA_OF_ASC_NODE":71.9109,"ARG_OF_PERICENTER":94.3063,"MEAN_ANOMALY":265.8252,"EPHEMERIS_TYPE":0,"CLASSIFICATION_TYPE":"U","NORAD_CAT_ID":45454,"ELEMENT_SET_NO":999,"REV_AT_EPOCH":26912,"BSTAR":-0.0013956,"MEAN_MOTION_DOT":-4.82e-6,"MEAN_MOTION_DDOT":0},{"OBJECT_NAME":"ONEWEB-0060","OBJECT_ID":"2020-020AH","EPOCH":"2025-10-05T04:32:25.424160","MEAN_MOTION":13.11415949,"ECCENTRICITY":4.46e-5,"INCLINATION":87.8798,"RA_OF_ASC_NODE":71.8654,"ARG_OF_PERICENTER":94.6525,"MEAN_ANOMALY":265.4654,"EPHEMERIS_TYPE":0,"CLASSIFICATION_TYPE":"U","NORAD_CAT_ID":45455,"ELEMENT_SET_NO":999,"REV_AT_EPOCH":26912,"BSTAR":0.0015461,"MEAN_MOTION_DOT":5.61e-6,"MEAN_MOTION_DDOT":0},{"OBJECT_NAME":"ONEWEB-0086","OBJECT_ID":"2020-020AJ","EPOCH":"2025-10-04T17:02:40.987968","MEAN_MOTION":13.1141841,"ECCENTRICITY":0.0001252,"INCLINATION":87.8805,"RA_OF_ASC_NODE":71.9333,"ARG_OF_PERICENTER":118.903,"MEAN_ANOMALY":241.2223,"EPHEMERIS_TYPE":0,"CLASSIFICATION_TYPE":"U","NORAD_CAT_ID":45456,"ELEMENT_SET_NO":999,"REV_AT_EPOCH":26912,"BSTAR":0.00028635,"MEAN_MOTION_DOT":1.14e-6,"MEAN_MOTION_DDOT":0},{"OBJECT_NAME":"ONEWEB-0088","OBJECT_ID":"2020-020AK","EPOCH":"2025-10-04T16:30:55.799712","MEAN_MOTION":13.11414826,"ECCENTRICITY":0.0001637,"INCLINATION":87.8814,"RA_OF_ASC_NODE":71.8863,"ARG_OF_PERICENTER":89.2018,"MEAN_ANOMALY":270.9298,"EPHEMERIS_TYPE":0,"CLASSIFICATION_TYPE":"U","NORAD_CAT_ID":45457,"ELEMENT_SET_NO":999,"REV_AT_EPOCH":26905,"BSTAR":-0.0014644,"MEAN_MOTION_DOT":-5.06e-6,"MEAN_MOTION_DDOT":0}]
